{"type": "FeatureCollection", "features": [ {"type": "Feature", "properties": {"norad_id": 39122, "name": "EUTELSAT 117 WEST A", "group": "eutelsat", "lat": 0.018379809915079575, "lon": 122.66580361862478, "alt_km": 35796.15034291737, "timestamp": "2025-12-23T09:49:06.747637+00:00", "meta": {"OBJECT_NAME": "EUTELSAT 117 WEST A", "OBJECT_ID": "2013-012A", "EPOCH": "2025-12-22T21:10:00.951744", "MEAN_MOTION": 1.00270729, "ECCENTRICITY": 0.00026377, "INCLINATION": 0.0248, "RA_OF_ASC_NODE": 310.0112, "ARG_OF_PERICENTER": 323.8799, "MEAN_ANOMALY": 18.5042, "EPHEMERIS_TYPE": 0, "CLASSIFICATION_TYPE": "U", "NORAD_CAT_ID": 39122, "ELEMENT_SET_NO": 999, "REV_AT_EPOCH": 4666, "BSTAR": 0, "MEAN_MOTION_DOT": 9e-08, "MEAN_MOTION_DDOT": 0}, "tle": {"line1": "1 39122U 13012A   25356.88195546  .00000009  00000+0  00000+0 0  9998", "line2": "2 39122   0.0248 310.0112 0002637 323.8799  18.5042  1.00270729 46660"}}, "geometry": {"type": "Point", "coordinates": [122.66580361862478, 0.018379809915079575]}}, {"type": "Feature", "properties": {"norad_id": 39163, "name": "EUTELSAT 7B", "group": "eutelsat", "lat": -0.07817389602580208, "lon": -113.58618009681632, "alt_km": 35781.5666979669, "timestamp": "2025-12-23T09:49:06.747650+00:00", "meta": {"OBJECT_NAME": "EUTELSAT 7B", "OBJECT_ID": "2013-022A", "EPOCH": "2025-12-22T21:45:27.557280", "MEAN_MOTION": 1.00271309, "ECCENTRICITY": 0.00044597, "INCLINATION": 0.0651, "RA_OF_ASC_NODE": 4.7392, "ARG_OF_PERICENTER": 317.7185, "MEAN_ANOMALY": 102.6044, "EPHEMERIS_TYPE": 0, "CLASSIFICATION_TYPE": "U", "NORAD_CAT_ID": 39163, "ELEMENT_SET_NO": 999, "REV_AT_EPOCH": 4618, "BSTAR": 0, "MEAN_MOTION_DOT": 6.9e-07, "MEAN_MOTION_DDOT": 0}, "tle": {"line1": "1 39163U 13022A   25356.90656895  .00000069  00000+0  00000+0 0  9992", "line2": "2 39163   0.0651   4.7392 0004459 317.7185 102.6044  1.00271309 46184"}}, "geometry": {"type": "Point", "coordinates": [-113.58618009681632, -0.07817389602580208]}}, {"type": "Feature", "properties": {"norad_id": 39612, "name": "EXPRESS-AT1", "group": "eutelsat", "lat": -0.03880143199432458, "lon": -64.5308520942248, "alt_km": 35789.01952830544, "timestamp": "2025-12-23T09:49:06.747662+00:00", "meta": {"OBJECT_NAME": "EXPRESS-AT1", "OBJECT_ID": "2014-010A", "EPOCH": "2025-12-22T10:00:26.265888", "MEAN_MOTION": 1.00271252, "ECCENTRICITY": 7.176e-05, "INCLINATION": 0.023, "RA_OF_ASC_NODE": 347.1334, "ARG_OF_PERICENTER": 146.8279, "MEAN_ANOMALY": 163.3666, "EPHEMERIS_TYPE": 0, "CLASSIFICATION_TYPE": "U", "NORAD_CAT_ID": 39612, "ELEMENT_SET_NO": 999, "REV_AT_EPOCH": 4304, "BSTAR": 0, "MEAN_MOTION_DOT": 0, "MEAN_MOTION_DDOT": 0}, "tle": {"line1": "1 39612U 14010A   25356.41697067  .00000000  00000+0  00000+0 0  9996", "line2": "2 39612   0.0230 347.1334 0000717 146.8279 163.3666  1.00271252 43047"}}, "geometry": {"type": "Point", "coordinates": [-64.5308520942248, -0.03880143199432458]}}, {"type": "Feature", "properties": {"norad_id": 39613, "name": "EXPRESS-AT2", "group": "eutelsat", "lat": 0.015867064932462874, "lon": 19.345987583687602, "alt_km": 35786.42045850408, "timestamp": "2025-12-23T09:49:06.747674+00:00", "meta": {"OBJECT_NAME": "EXPRESS-AT2", "OBJECT_ID": "2014-010B", "EPOCH": "2025-12-22T22:23:23.924256", "MEAN_MOTION": 1.00273647, "ECCENTRICITY": 0.00014681, "INCLINATION": 0.016, "RA_OF_ASC_NODE": 296.3454, "ARG_OF_PERICENTER": 345.5914, "MEAN_ANOMALY": 285.4983, "EPHEMERIS_TYPE": 0, "CLASSIFICATION_TYPE": "U", "NORAD_CAT_ID": 39613, "ELEMENT_SET_NO": 999, "REV_AT_EPOCH": 4273, "BSTAR": 0, "MEAN_MOTION_DOT": -2.59e-06, "MEAN_MOTION_DDOT": 0}, "tle": {"line1": "1 39613U 14010B   25356.93291579 -.00000259  00000+0  00000+0 0  9999", "line2": "2 39613   0.0160 296.3454 0001468 345.5914 285.4983  1.00273647 42739"}}, "geometry": {"type": "Point", "coordinates": [19.345987583687602, 0.015867064932462874]}}, {"type": "Feature", "properties": {"norad_id": 39773, "name": "EUTELSAT 3B", "group": "eutelsat", "lat": -0.08036719819161099, "lon": -117.4145093661255, "alt_km": 35768.25238224786, "timestamp": "2025-12-23T09:49:06.747686+00:00", "meta": {"OBJECT_NAME": "EUTELSAT 3B", "OBJECT_ID": "2014-030A", "EPOCH": "2025-12-22T18:18:54.834624", "MEAN_MOTION": 1.00271831, "ECCENTRICITY": 0.00042956, "INCLINATION": 0.0623, "RA_OF_ASC_NODE": 344.3959, "ARG_OF_PERICENTER": 246.9834, "MEAN_ANOMALY": 138.0171, "EPHEMERIS_TYPE": 0, "CLASSIFICATION_TYPE": "U", "NORAD_CAT_ID": 39773, "ELEMENT_SET_NO": 999, "REV_AT_EPOCH": 4229, "BSTAR": 0, "MEAN_MOTION_DOT": 4.2e-07, "MEAN_MOTION_DDOT": 0}, "tle": {"line1": "1 39773U 14030A   25356.76313466  .00000042  00000+0  00000+0 0  9998", "line2": "2 39773   0.0623 344.3959 0004295 246.9834 138.0171  1.00271831 42296"}}, "geometry": {"type": "Point", "coordinates": [-117.4145093661255, -0.08036719819161099]}}, {"type": "Feature", "properties": {"norad_id": 40425, "name": "EUTELSAT 115 WEST B", "group": "eutelsat", "lat": -0.007852033582773529, "lon": 124.54973368850162, "alt_km": 35787.65734196657, "timestamp": "2025-12-23T09:49:06.747698+00:00", "meta": {"OBJECT_NAME": "EUTELSAT 115 WEST B", "OBJECT_ID": "2015-010B", "EPOCH": "2025-12-22T10:47:31.232256", "MEAN_MOTION": 1.00269855, "ECCENTRICITY": 2.522e-05, "INCLINATION": 0.0093, "RA_OF_ASC_NODE": 153.5517, "ARG_OF_PERICENTER": 151.4988, "MEAN_ANOMALY": 193.1685, "EPHEMERIS_TYPE": 0, "CLASSIFICATION_TYPE": "U", "NORAD_CAT_ID": 40425, "ELEMENT_SET_NO": 999, "REV_AT_EPOCH": 3962, "BSTAR": 0, "MEAN_MOTION_DOT": -3e-08, "MEAN_MOTION_DDOT": 0}, "tle": {"line1": "1 40425U 15010B   25356.44966704 -.00000003  00000+0  00000+0 0  9995", "line2": "2 40425   0.0093 153.5517 0000252 151.4988 193.1685  1.00269855 39620"}}, "geometry": {"type": "Point", "coordinates": [124.54973368850162, -0.007852033582773529]}}, {"type": "Feature", "properties": {"norad_id": 40875, "name": "EUTELSAT 8 WEST B", "group": "eutelsat", "lat": -0.06423527117293203, "lon": -128.56203084915822, "alt_km": 35772.68609627514, "timestamp": "2025-12-23T09:49:06.747711+00:00", "meta": {"OBJECT_NAME": "EUTELSAT 8 WEST B", "OBJECT_ID": "2015-039B", "EPOCH": "2025-12-22T18:15:47.634336", "MEAN_MOTION": 1.0027118, "ECCENTRICITY": 0.00042526, "INCLINATION": 0.0637, "RA_OF_ASC_NODE": 3.5224, "ARG_OF_PERICENTER": 269.0428, "MEAN_ANOMALY": 84.9445, "EPHEMERIS_TYPE": 0, "CLASSIFICATION_TYPE": "U", "NORAD_CAT_ID": 40875, "ELEMENT_SET_NO": 999, "REV_AT_EPOCH": 3788, "BSTAR": 0, "MEAN_MOTION_DOT": -4.4e-07, "MEAN_MOTION_DDOT": 0}, "tle": {"line1": "1 40875U 15039B   25356.76096799 -.00000044  00000+0  00000+0 0  9993", "line2": "2 40875   0.0637   3.5224 0004252 269.0428  84.9445  1.00271180 37882"}}, "geometry": {"type": "Point", "coordinates": [-128.56203084915822, -0.06423527117293203]}}, {"type": "Feature", "properties": {"norad_id": 41310, "name": "EUTELSAT 9B", "group": "eutelsat", "lat": -0.012968961493722059, "lon": -111.54436783145935, "alt_km": 35768.70712621363, "timestamp": "2025-12-23T09:49:06.747723+00:00", "meta": {"OBJECT_NAME": "EUTELSAT 9B", "OBJECT_ID": "2016-005A", "EPOCH": "2025-12-22T03:54:38.524896", "MEAN_MOTION": 1.00273048, "ECCENTRICITY": 0.0004511, "INCLINATION": 0.0657, "RA_OF_ASC_NODE": 72.7349, "ARG_OF_PERICENTER": 203.4472, "MEAN_ANOMALY": 242.4516, "EPHEMERIS_TYPE": 0, "CLASSIFICATION_TYPE": "U", "NORAD_CAT_ID": 41310, "ELEMENT_SET_NO": 999, "REV_AT_EPOCH": 3634, "BSTAR": 0, "MEAN_MOTION_DOT": 8.4e-07, "MEAN_MOTION_DDOT": 0}, "tle": {"line1": "1 41310U 16005A   25356.16294589  .00000084  00000+0  00000+0 0  9996", "line2": "2 41310   0.0657  72.7349 0004511 203.4472 242.4516  1.00273048 36349"}}, "geometry": {"type": "Point", "coordinates": [-111.54436783145935, -0.012968961493722059]}}, {"type": "Feature", "properties": {"norad_id": 41382, "name": "EUTELSAT 65 WEST A", "group": "eutelsat", "lat": -0.010475617272824813, "lon": 174.2614874318322, "alt_km": 35787.476167449706, "timestamp": "2025-12-23T09:49:06.747734+00:00", "meta": {"OBJECT_NAME": "EUTELSAT 65 WEST A", "OBJECT_ID": "2016-014A", "EPOCH": "2025-12-22T21:24:52.028640", "MEAN_MOTION": 1.00273015, "ECCENTRICITY": 0.00021787, "INCLINATION": 0.0507, "RA_OF_ASC_NODE": 338.2358, "ARG_OF_PERICENTER": 296.5249, "MEAN_ANOMALY": 72.9594, "EPHEMERIS_TYPE": 0, "CLASSIFICATION_TYPE": "U", "NORAD_CAT_ID": 41382, "ELEMENT_SET_NO": 999, "REV_AT_EPOCH": 3576, "BSTAR": 0, "MEAN_MOTION_DOT": -2.55e-06, "MEAN_MOTION_DDOT": 0}, "tle": {"line1": "1 41382U 16014A   25356.89226885 -.00000255  00000+0  00000+0 0  9990", "line2": "2 41382   0.0507 338.2358 0002178 296.5249  72.9594  1.00273015 35765"}}, "geometry": {"type": "Point", "coordinates": [174.2614874318322, -0.010475617272824813]}}, {"type": "Feature", "properties": {"norad_id": 41589, "name": "EUTELSAT 117 WEST B", "group": "eutelsat", "lat": -0.003402046612841408, "lon": 122.47356090347988, "alt_km": 35787.70356290672, "timestamp": "2025-12-23T09:49:06.747746+00:00", "meta": {"OBJECT_NAME": "EUTELSAT 117 WEST B", "OBJECT_ID": "2016-038B", "EPOCH": "2025-12-22T10:46:33.521376", "MEAN_MOTION": 1.00271447, "ECCENTRICITY": 3.908e-05, "INCLINATION": 0.0103, "RA_OF_ASC_NODE": 138.8686, "ARG_OF_PERICENTER": 145.0277, "MEAN_ANOMALY": 212.0013, "EPHEMERIS_TYPE": 0, "CLASSIFICATION_TYPE": "U", "NORAD_CAT_ID": 41589, "ELEMENT_SET_NO": 999, "REV_AT_EPOCH": 3489, "BSTAR": 0, "MEAN_MOTION_DOT": 1e-07, "MEAN_MOTION_DDOT": 0}, "tle": {"line1": "1 41589U 16038B   25356.44899909  .00000010  00000+0  00000+0 0  9997", "line2": "2 41589   0.0103 138.8686 0000390 145.0277 212.0013  1.00271447 34890"}}, "geometry": {"type": "Point", "coordinates": [122.47356090347988, -0.003402046612841408]}}]}